{
    "links": {
        "self": "http://www.neowsapp.com/rest/v1/neo/3655746?api_key=iIulBulltgU6a56xZRHN4H3l9WmuAYTsLGpBGhQ2"
    },
    "id": "3655746",
    "neo_reference_id": "3655746",
    "name": "(2014 AE16)",
    "designation": "2014 AE16",
    "nasa_jpl_url": "http://ssd.jpl.nasa.gov/sbdb.cgi?sstr=3655746",
    "absolute_magnitude_h": 24.2,
    "estimated_diameter": {
        "kilometers": {
            "estimated_diameter_min": 0.0384197891,
            "estimated_diameter_max": 0.0859092601
        },
        "meters": {
            "estimated_diameter_min": 38.4197891064,
            "estimated_diameter_max": 85.9092601232
        },
        "miles": {
            "estimated_diameter_min": 0.0238729428,
            "estimated_diameter_max": 0.0533815229
        },
        "feet": {
            "estimated_diameter_min": 126.0491808919,
            "estimated_diameter_max": 281.8545369825
        }
    },
    "is_potentially_hazardous_asteroid": false,
    "close_approach_data": [
        {
            "close_approach_date": "2013-12-18",
            "close_approach_date_full": "2013-Dec-18 15:38",
            "epoch_date_close_approach": 1387381080000,
            "relative_velocity": {
                "kilometers_per_second": "2.6909097066",
                "kilometers_per_hour": "9687.2749439399",
                "miles_per_hour": "6019.2959228053"
            },
            "miss_distance": {
                "astronomical": "0.1189897689",
                "lunar": "46.2870201021",
                "kilometers": "17800615.979232243",
                "miles": "11060789.8738532334"
            },
            "orbiting_body": "Earth"
        }
    ],
    "orbital_data": {
        "orbit_id": "9",
        "orbit_determination_date": "2017-04-06 08:43:00",
        "first_observation_date": "2014-01-03",
        "last_observation_date": "2014-02-01",
        "data_arc_in_days": 29,
        "observations_used": 40,
        "orbit_uncertainty": "7",
        "minimum_orbit_intersection": ".115564",
        "jupiter_tisserand_invariant": "4.260",
        "epoch_osculation": "2459000.5",
        "eccentricity": ".3235257489406058",
        "semi_major_axis": "1.624576700336515",
        "inclination": "1.941855729540717",
        "ascending_node_longitude": "278.3539905133709",
        "orbital_period": "756.3255246476551",
        "perihelion_distance": "1.098984306648686",
        "perihelion_argument": "168.6353349055921",
        "aphelion_distance": "2.150169094024344",
        "perihelion_time": "2458912.975570922470",
        "mean_anomaly": "41.6603611025685",
        "mean_motion": ".4759855224609946",
        "equinox": "J2000",
        "orbit_class": {
            "orbit_class_type": "AMO",
            "orbit_class_description": "Near-Earth asteroid orbits similar to that of 1221 Amor",
            "orbit_class_range": "1.017 AU < q (perihelion) < 1.3 AU"
        }
    },
    "is_sentry_object": false
}